[{"OBJECT_NAME":"ONEWEB-0710","OBJECT_ID":"2023-004AK","EPOCH":"2026-04-19T04:49:58.859616","MEAN_MOTION":13.17648316,"ECCENTRICITY":0.0001641,"INCLINATION":87.9185,"RA_OF_ASC_NODE":17.5849,"ARG_OF_PERICENTER":81.3546,"MEAN_ANOMALY":278.7771,"EPHEMERIS_TYPE":0,"CLASSIFICATION_TYPE":"U","NORAD_CAT_ID":55173,"ELEMENT_SET_NO":999,"REV_AT_EPOCH":15981,"BSTAR":0.00020151,"MEAN_MOTION_DOT":9.1e-07,"MEAN_MOTION_DDOT":0.0},{"OBJECT_NAME":"ONEWEB-0711","OBJECT_ID":"2023-004AL","EPOCH":"2026-04-19T01:05:32.616096","MEAN_MOTION":13.11416224,"ECCENTRICITY":0.0001199,"INCLINATION":87.8931,"RA_OF_ASC_NODE":32.8219,"ARG_OF_PERICENTER":97.3019,"MEAN_ANOMALY":262.8246,"EPHEMERIS_TYPE":0,"CLASSIFICATION_TYPE":"U","NORAD_CAT_ID":55174,"ELEMENT_SET_NO":999,"REV_AT_EPOCH":15808,"BSTAR":-0.0018146000000000002,"MEAN_MOTION_DOT":-6.3e-06,"MEAN_MOTION_DDOT":0.0},{"OBJECT_NAME":"ONEWEB-0713","OBJECT_ID":"2023-004AM","EPOCH":"2026-04-19T05:12:08.731008","MEAN_MOTION":13.11418437,"ECCENTRICITY":0.0001507,"INCLINATION":87.8927,"RA_OF_ASC_NODE":32.7896,"ARG_OF_PERICENTER":85.0861,"MEAN_ANOMALY":275.0439,"EPHEMERIS_TYPE":0,"CLASSIFICATION_TYPE":"U","NORAD_CAT_ID":55175,"ELEMENT_SET_NO":999,"REV_AT_EPOCH":15809,"BSTAR":0.00019104,"MEAN_MOTION_DOT":8e-07,"MEAN_MOTION_DDOT":0.0},{"OBJECT_NAME":"ONEWEB-0715","OBJECT_ID":"2023-004AN","EPOCH":"2026-04-19T05:04:48.997344","MEAN_MOTION":13.11418567,"ECCENTRICITY":0.0001678,"INCLINATION":87.8933,"RA_OF_ASC_NODE":32.7902,"ARG_OF_PERICENTER":55.271,"MEAN_ANOMALY":304.8576,"EPHEMERIS_TYPE":0,"CLASSIFICATION_TYPE":"U","NORAD_CAT_ID":55176,"ELEMENT_SET_NO":999,"REV_AT_EPOCH":15813,"BSTAR":-0.00039348,"MEAN_MOTION_DOT":-1.27e-06,"MEAN_MOTION_DDOT":0.0},{"OBJECT_NAME":"ONEWEB-0716","OBJECT_ID":"2023-004AP","EPOCH":"2026-04-19T04:40:15.175776","MEAN_MOTION":13.17647775,"ECCENTRICITY":0.000207,"INCLINATION":87.9187,"RA_OF_ASC_NODE":17.5875,"ARG_OF_PERICENTER":79.9233,"MEAN_ANOMALY":280.2132,"EPHEMERIS_TYPE":0,"CLASSIFICATION_TYPE":"U","NORAD_CAT_ID":55177,"ELEMENT_SET_NO":999,"REV_AT_EPOCH":15981,"BSTAR":0.00020222000000000003,"MEAN_MOTION_DOT":9.1e-07,"MEAN_MOTION_DDOT":0.0},{"OBJECT_NAME":"ONEWEB-0717","OBJECT_ID":"2023-004AQ","EPOCH":"2026-04-19T04:15:57.225024","MEAN_MOTION":13.17647727,"ECCENTRICITY":0.0001178,"INCLINATION":87.9194,"RA_OF_ASC_NODE":17.5736,"ARG_OF_PERICENTER":89.613,"MEAN_ANOMALY":270.5136,"EPHEMERIS_TYPE":0,"CLASSIFICATION_TYPE":"U","NORAD_CAT_ID":55178,"ELEMENT_SET_NO":999,"REV_AT_EPOCH":15986,"BSTAR":0.00020379,"MEAN_MOTION_DOT":9.2e-07,"MEAN_MOTION_DDOT":0.0},{"OBJECT_NAME":"ONEWEB-0719","OBJECT_ID":"2023-004AR","EPOCH":"2026-04-19T04:30:32.032800","MEAN_MOTION":13.17647766,"ECCENTRICITY":0.0001997,"INCLINATION":87.9193,"RA_OF_ASC_NODE":17.5527,"ARG_OF_PERICENTER":83.7102,"MEAN_ANOMALY":276.4257,"EPHEMERIS_TYPE":0,"CLASSIFICATION_TYPE":"U","NORAD_CAT_ID":55179,"ELEMENT_SET_NO":999,"REV_AT_EPOCH":15981,"BSTAR":0.00022551,"MEAN_MOTION_DOT":1e-06,"MEAN_MOTION_DDOT":0.0},{"OBJECT_NAME":"ONEWEB-0530","OBJECT_ID":"2023-029A","EPOCH":"2026-04-19T05:27:28.952352","MEAN_MOTION":13.20773126,"ECCENTRICITY":0.000164,"INCLINATION":87.9129,"RA_OF_ASC_NODE":286.2433,"ARG_OF_PERICENTER":110.3137,"MEAN_ANOMALY":249.8172,"EPHEMERIS_TYPE":0,"CLASSIFICATION_TYPE":"U","NORAD_CAT_ID":55796,"ELEMENT_SET_NO":999,"REV_AT_EPOCH":15336,"BSTAR":5.0605999999999996e-05,"MEAN_MOTION_DOT":3.4e-07,"MEAN_MOTION_DDOT":0.0},{"OBJECT_NAME":"ONEWEB-0534","OBJECT_ID":"2023-029B","EPOCH":"2026-04-19T05:09:17.850816","MEAN_MOTION":13.20773423,"ECCENTRICITY":0.000188,"INCLINATION":87.913,"RA_OF_ASC_NODE":286.2448,"ARG_OF_PERICENTER":93.0208,"MEAN_ANOMALY":267.114,"EPHEMERIS_TYPE":0,"CLASSIFICATION_TYPE":"U","NORAD_CAT_ID":55797,"ELEMENT_SET_NO":999,"REV_AT_EPOCH":15336,"BSTAR":-1.7685e-05,"MEAN_MOTION_DOT":6e-08,"MEAN_MOTION_DDOT":0.0},{"OBJECT_NAME":"ONEWEB-0556","OBJECT_ID":"2023-029C","EPOCH":"2026-04-19T05:18:25.171488","MEAN_MOTION":13.20770707,"ECCENTRICITY":0.0002514,"INCLINATION":87.9125,"RA_OF_ASC_NODE":286.2447,"ARG_OF_PERICENTER":106.0425,"MEAN_ANOMALY":254.0986,"EPHEMERIS_TYPE":0,"CLASSIFICATION_TYPE":"U","NORAD_CAT_ID":55798,"ELEMENT_SET_NO":999,"REV_AT_EPOCH":15336,"BSTAR":-6.8658e-05,"MEAN_MOTION_DOT":-1.5e-07,"MEAN_MOTION_DDOT":0.0},{"OBJECT_NAME":"ONEWEB-0562","OBJECT_ID":"2023-029D","EPOCH":"2026-04-18T21:43:50.848032","MEAN_MOTION":13.20773069,"ECCENTRICITY":0.0002005,"INCLINATION":87.9127,"RA_OF_ASC_NODE":286.2884,"ARG_OF_PERICENTER":119.7832,"MEAN_ANOMALY":240.3501,"EPHEMERIS_TYPE":0,"CLASSIFICATION_TYPE":"U","NORAD_CAT_ID":55799,"ELEMENT_SET_NO":999,"REV_AT_EPOCH":15332,"BSTAR":0.00022566,"MEAN_MOTION_DOT":1.05e-06,"MEAN_MOTION_DDOT":0.0},{"OBJECT_NAME":"ONEWEB-0563","OBJECT_ID":"2023-029E","EPOCH":"2026-04-19T04:51:08.447040","MEAN_MOTION":13.2077207,"ECCENTRICITY":0.0002008,"INCLINATION":87.9128,"RA_OF_ASC_NODE":286.2593,"ARG_OF_PERICENTER":92.6718,"MEAN_ANOMALY":267.4645,"EPHEMERIS_TYPE":0,"CLASSIFICATION_TYPE":"U","NORAD_CAT_ID":55800,"ELEMENT_SET_NO":999,"REV_AT_EPOCH":15335,"BSTAR":6.5862e-05,"MEAN_MOTION_DOT":4e-07,"MEAN_MOTION_DDOT":0.0},{"OBJECT_NAME":"ONEWEB-0564","OBJECT_ID":"2023-029F","EPOCH":"2026-04-19T04:42:01.882368","MEAN_MOTION":13.20773239,"ECCENTRICITY":0.0001715,"INCLINATION":87.9128,"RA_OF_ASC_NODE":286.2329,"ARG_OF_PERICENTER":105.0505,"MEAN_ANOMALY":255.0818,"EPHEMERIS_TYPE":0,"CLASSIFICATION_TYPE":"U","NORAD_CAT_ID":55801,"ELEMENT_SET_NO":999,"REV_AT_EPOCH":15336,"BSTAR":9.005800000000001e-05,"MEAN_MOTION_DOT":5e-07,"MEAN_MOTION_DDOT":0.0},{"OBJECT_NAME":"ONEWEB-0638","OBJECT_ID":"2023-029G","EPOCH":"2026-04-19T05:59:21.374016","MEAN_MOTION":13.14502563,"ECCENTRICITY":0.0002105,"INCLINATION":87.8923,"RA_OF_ASC_NODE":301.5208,"ARG_OF_PERICENTER":102.8878,"MEAN_ANOMALY":257.2487,"EPHEMERIS_TYPE":0,"CLASSIFICATION_TYPE":"U","NORAD_CAT_ID":55802,"ELEMENT_SET_NO":999,"REV_AT_EPOCH":15165,"BSTAR":-0.00077562,"MEAN_MOTION_DOT":-2.75e-06,"MEAN_MOTION_DDOT":0.0},{"OBJECT_NAME":"ONEWEB-0639","OBJECT_ID":"2023-029H","EPOCH":"2026-04-19T06:34:24.690432","MEAN_MOTION":13.19724109,"ECCENTRICITY":0.0002541,"INCLINATION":87.9164,"RA_OF_ASC_NODE":316.7259,"ARG_OF_PERICENTER":69.9692,"MEAN_ANOMALY":290.1714,"EPHEMERIS_TYPE":0,"CLASSIFICATION_TYPE":"U","NORAD_CAT_ID":55803,"ELEMENT_SET_NO":999,"REV_AT_EPOCH":15113,"BSTAR":-4.0093000000000004e-05,"MEAN_MOTION_DOT":-3e-08,"MEAN_MOTION_DDOT":0.0},{"OBJECT_NAME":"ONEWEB-0640","OBJECT_ID":"2023-029J","EPOCH":"2026-04-19T06:13:03.440640","MEAN_MOTION":13.1450313,"ECCENTRICITY":0.000244,"INCLINATION":87.8917,"RA_OF_ASC_NODE":301.5102,"ARG_OF_PERICENTER":97.275,"MEAN_ANOMALY":262.8657,"EPHEMERIS_TYPE":0,"CLASSIFICATION_TYPE":"U","NORAD_CAT_ID":55804,"ELEMENT_SET_NO":999,"REV_AT_EPOCH":15167,"BSTAR":-0.00036799,"MEAN_MOTION_DOT":-1.24e-06,"MEAN_MOTION_DDOT":0.0}]