ONEWEB-0710             
1 55173U 23004AK  26109.20137569  .00000091  00000+0  20151-3 0  9992
2 55173  87.9185  17.5849 0001641  81.3546 278.7771 13.17648316159817
ONEWEB-0711             
1 55174U 23004AL  26109.04551639 -.00000630  00000+0 -18146-2 0  9994
2 55174  87.8931  32.8219 0001199  97.3019 262.8246 13.11416224158081
ONEWEB-0713             
1 55175U 23004AM  26109.21676772  .00000080  00000+0  19104-3 0  9993
2 55175  87.8927  32.7896 0001507  85.0861 275.0439 13.11418437158098
ONEWEB-0715             
1 55176U 23004AN  26109.21167821 -.00000127  00000+0 -39348-3 0  9990
2 55176  87.8933  32.7902 0001678  55.2710 304.8576 13.11418567158137
ONEWEB-0716             
1 55177U 23004AP  26109.19462009  .00000091  00000+0  20222-3 0  9993
2 55177  87.9187  17.5875 0002070  79.9233 280.2132 13.17647775159812
ONEWEB-0717             
1 55178U 23004AQ  26109.17774566  .00000092  00000+0  20379-3 0  9990
2 55178  87.9194  17.5736 0001178  89.6130 270.5136 13.17647727159867
ONEWEB-0719             
1 55179U 23004AR  26109.18787075  .00000100  00000+0  22551-3 0  9995
2 55179  87.9193  17.5527 0001997  83.7102 276.4257 13.17647766159815
ONEWEB-0530             
1 55796U 23029A   26109.22741843  .00000034  00000+0  50606-4 0  9994
2 55796  87.9129 286.2433 0001640 110.3137 249.8172 13.20773126153368
ONEWEB-0534             
1 55797U 23029B   26109.21478994  .00000006  00000+0 -17685-4 0  9998
2 55797  87.9130 286.2448 0001880  93.0208 267.1140 13.20773423153367
ONEWEB-0556             
1 55798U 23029C   26109.22112467 -.00000015  00000+0 -68658-4 0  9997
2 55798  87.9125 286.2447 0002514 106.0425 254.0986 13.20770707153367
ONEWEB-0562             
1 55799U 23029D   26108.90544963  .00000105  00000+0  22566-3 0  9997
2 55799  87.9127 286.2884 0002005 119.7832 240.3501 13.20773069153324
ONEWEB-0563             
1 55800U 23029E   26109.20218110  .00000040  00000+0  65862-4 0  9991
2 55800  87.9128 286.2593 0002008  92.6718 267.4645 13.20772070153353
ONEWEB-0564             
1 55801U 23029F   26109.19585512  .00000050  00000+0  90058-4 0  9999
2 55801  87.9128 286.2329 0001715 105.0505 255.0818 13.20773239153362
ONEWEB-0638             
1 55802U 23029G   26109.24955294 -.00000275  00000+0 -77562-3 0  9999
2 55802  87.8923 301.5208 0002105 102.8878 257.2487 13.14502563151653
ONEWEB-0639             
1 55803U 23029H   26109.27389688 -.00000003  00000+0 -40093-4 0  9990
2 55803  87.9164 316.7259 0002541  69.9692 290.1714 13.19724109151136
ONEWEB-0640             
1 55804U 23029J   26109.25906760 -.00000124  00000+0 -36799-3 0  9996
2 55804  87.8917 301.5102 0002440  97.2750 262.8657 13.14503130151673
